STARLINK-1348           
1 45561U 20025AG  22093.35582379  .00028465  00000+0  17128-2 0  9993
2 45561  53.0580 326.8631 0001966 106.8225 253.2982 15.10636031109523
STARLINK-1354           
1 45562U 20025AH  22093.58375185 -.00001871  00000+0 -10676-3 0  9990
2 45562  53.0555  53.5399 0001479  72.0271 288.0879 15.06387938108316
STARLINK-1355           
1 45563U 20025AJ  22093.26676707  .00001207  00000+0  99941-4 0  9994
2 45563  53.0567  54.9871 0001557  66.0135 294.1017 15.06386218108265
STARLINK-1356           
1 45564U 20025AK  22093.59480900 -.00003167  00000+0 -19391-3 0  9998
2 45564  53.0552  53.4915 0001544  63.7659 296.3489 15.06382683108319
STARLINK-1357           
1 45565U 20025AL  22093.58743135 -.00000890  00000+0 -40901-4 0  9992
2 45565  53.0547  53.5299 0001443  62.2134 297.9001 15.06392051108317
STARLINK-1358           
1 45566U 20025AM  22093.40313300 -.00002029  00000+0 -11740-3 0  9995
2 45566  53.0554  54.3658 0001764  50.6108 309.5037 15.06388110108288
STARLINK-1361           
1 45567U 20025AN  22093.41419432 -.00002504  00000+0 -14931-3 0  9993
2 45567  53.0545  54.2994 0001608  70.3385 289.7778 15.06388931108286
STARLINK-1363           
1 45568U 20025AP  22093.60491856 -.00004092  00000+0 -25609-3 0  9993
2 45568  53.0547  53.4549 0001624  67.4976 292.6185 15.06383071108316
STARLINK-1366           
1 45569U 20025AQ  22093.81596609 -.00001438  00000+0 -77659-4 0  9993
2 45569  53.0559  52.5059 0001582  45.5420 314.5698 15.06385917108347
STARLINK-1376           
1 45570U 20025AR  22092.61434375  .00000112  00000+0  26432-4 0  9992
2 45570  53.0553  57.8937 0001392  60.4808 299.6320 15.06390558108769
STARLINK-1261           
1 45571U 20025AS  22093.55886549 -.00004294  00000+0 -26969-3 0  9992
2 45571  53.0559  43.6721 0001570  62.1189 297.9959 15.06381586108455
STARLINK-1320           
1 45572U 20025AT  22093.81688785 -.00001034  00000+0 -50582-4 0  9992
2 45572  53.0563  42.5162 0001373  67.5664 292.5470 15.06384877108484
STARLINK-1321           
1 45573U 20025AU  22093.59572749 -.00001618  00000+0 -89808-4 0  9991
2 45573  53.0552  43.4976 0001829  59.6429 300.4741 15.06384848108458
STARLINK-1324           
1 45574U 20025AV  22093.82057124 -.00002290  00000+0 -13495-3 0  9998
2 45574  53.0559  42.4942 0001419  70.4990 289.6152 15.06380798108495
STARLINK-1326           
1 45575U 20025AW  22093.11954839  .00027385  00000+0  16096-2 0  9999
2 45575  53.0014  37.8813 0001950  89.6322 270.4892 15.11506420108462
STARLINK-1328           
1 45576U 20025AX  22093.58098390 -.00001941  00000+0 -11148-3 0  9998
2 45576  53.0557  43.5500 0001454  56.4184 303.6943 15.06394969108451
STARLINK-1330           
1 45577U 20025AY  22093.33771385 -.00002165  00000+0 -12652-3 0  9994
2 45577  53.0565  44.6418 0001734  52.2207 307.8939 15.06386138108418
STARLINK-1331           
1 45578U 20025AZ  22093.37456730 -.00002465  00000+0 -14666-3 0  9993
2 45578  53.0539  44.4880 0001443  62.6825 297.4311 15.06392916108429
STARLINK-1332           
1 45579U 20025BA  22093.23356172 -.00004309  00000+0 -27063-3 0  9992
2 45579  53.0556   5.1108 0001554  95.5237 264.5929 15.06391773108971
STARLINK-1333           
1 45580U 20025BB  22093.31467109 -.00003069  00000+0 -18725-3 0  9993
2 45580  53.0544  54.7472 0001691  51.0969 309.0171 15.06387950108274
STARLINK-1335           
1 45581U 20025BC  22092.85484351  .00002034  00000+0  15539-3 0  9999
2 45581  53.0552  46.8160 0001571  57.7524 302.3617 15.06400209108945
STARLINK-1337           
1 45582U 20025BD  22092.61157269 -.00002341  00000+0 -13830-3 0  9994
2 45582  53.0560  47.9056 0001729  50.8168 309.2974 15.06393375108907
STARLINK-1340           
1 45583U 20025BE  22093.58835738 -.00002490  00000+0 -14833-3 0  9995
2 45583  53.0553  43.5172 0001939  45.2814 314.8332 15.06388261108458
STARLINK-1343           
1 45584U 20025BF  22093.17921126 -.00001480  00000+0 -80515-4 0  9997
2 45584  53.0579  45.3596 0001491  69.9273 290.1877 15.06387630108394
STARLINK-1347           
1 45586U 20025BH  22093.13497780 -.00000600  00000+0 -21344-4 0  9997
2 45586  53.0572  45.5675 0001749  51.2678 308.8467 15.06401576108374
STARLINK-1349           
1 45587U 20025BJ  22093.56992444 -.00001702  00000+0 -95414-4 0  9995
2 45587  53.0564  43.6044 0001471  55.8308 304.2820 15.06395158108457
STARLINK-1360           
1 45588U 20025BK  22093.54781116 -.00003429  00000+0 -21149-3 0  9997
2 45588  53.0555  43.7181 0001363  73.3736 286.7402 15.06384255108446
STARLINK-1364           
1 45589U 20025BL  22093.27872494  .00001213  00000+0  10036-3 0  9998
2 45589  53.0554  44.9177 0001497  49.8345 310.2775 15.06385506108408
STARLINK-1365           
1 45590U 20025BM  22093.82518296 -.00003762  00000+0 -23390-3 0  9998
2 45590  53.0549  72.4718 0001812  47.5228 312.5914 15.06383493108073
STARLINK-1441           
1 45658U 20035B   22093.20225289 -.00000482  00000+0 -13451-4 0  9997
2 45658  53.0556  35.2562 0001477  66.3593 293.7551 15.06389078101818
STARLINK-1442           
1 45659U 20035C   22093.80211534 -.00001061  00000+0 -52350-4 0  9997
2 45659  53.0555  32.5779 0001626  67.4028 292.7132 15.06391754101907
STARLINK-1443           
1 45660U 20035D   22093.14695932 -.00003683  00000+0 -22863-3 0  9991
2 45660  53.0546  35.5142 0001528  60.6544 299.4598 15.06378570101805
STARLINK-1444           
1 45661U 20035E   22093.56348012 -.00001446  00000+0 -78222-4 0  9998
2 45661  53.0571  33.6358 0001690  61.7511 298.3649 15.06386160101852
STARLINK-1445           
1 45662U 20035F   22093.31282721 -.00002924  00000+0 -17749-3 0  9994
2 45662  53.0548  34.7538 0001637  61.1851 298.9302 15.06394683101874
STARLINK-1446           
1 45663U 20035G   22093.11746291 -.00002408  00000+0 -14282-3 0  9996
2 45663  53.0544  35.6356 0001503  61.2364 298.8776 15.06397251101790
STARLINK-1448           
1 45665U 20035J   22093.81412474 -.00001465  00000+0 -79520-4 0  9997
2 45665  53.0550  32.5014 0001569  66.1093 294.0060 15.06388990101908
STARLINK-1449           
1 45666U 20035K   22093.82055010 -.00001066  00000+0 -52696-4 0  9990
2 45666  53.0559  32.4915 0001462  61.3650 298.7485 15.06375813101907
STARLINK-1450           
1 45667U 20035L   22093.81781283 -.00001485  00000+0 -80836-4 0  9990
2 45667  53.0551  32.4885 0001518  68.8267 291.2884 15.06383682101953
STARLINK-1451           
1 45668U 20035M   22093.78736305  .00007369  00000+0  51343-3 0  9997
2 45668  53.0594  32.6277 0001383  57.0654 303.0468 15.06374776101907
STARLINK-1452           
1 45669U 20035N   22093.83623533 -.00002238  00000+0 -13143-3 0  9990
2 45669  53.0560  32.4101 0001673  51.6287 308.4852 15.06387468101895
STARLINK-1453           
1 45670U 20035P   22093.76159603  .00002689  00000+0  19943-3 0  9998
2 45670  53.0567   2.7561 0001531  56.0802 304.0332 15.06382863102316
STARLINK-1454           
1 45671U 20035Q   22093.11009930 -.00001593  00000+0 -88040-4 0  9995
2 45671  53.0556  35.6685 0001622  62.3305 297.7848 15.06397794101796
STARLINK-1455           
1 45672U 20035R   22093.78370820  .00004934  00000+0  34994-3 0  9996
2 45672  53.0555   2.6594 0001640  64.3424 295.7735 15.06395921102315
STARLINK-1456           
1 45673U 20035S   22093.78832588  .00000759  00000+0  69832-4 0  9992
2 45673  53.0544  32.6193 0001456  58.3012 301.8119 15.06388796101904
STARLINK-1457           
1 45674U 20035T   22093.53030106 -.00002420  00000+0 -14361-3 0  9997
2 45674  53.0560  33.7852 0001385  62.3482 297.7647 15.06395306101874
STARLINK-1458           
1 45675U 20035U   22093.78463620 -.00003724  00000+0 -23132-3 0  9990
2 45675  53.0563  32.6403 0001996  43.4455 316.6691 15.06388313101898
STARLINK-1460           
1 45676U 20035V   22093.22436530  .00004124  00000+0  29572-3 0  9997
2 45676  53.0567  35.1637 0001518  59.9269 300.1870 15.06386964101814
STARLINK-1392           
1 45677U 20035W   22093.83255520 -.00002843  00000+0 -17213-3 0  9990
2 45677  53.0549  32.4317 0001591  51.3553 308.7579 15.06384359101909
STARLINK-1393           
1 45678U 20035X   22093.49436034 -.00003001  00000+0 -18272-3 0  9997
2 45678  53.0548  23.9369 0001824  55.2587 304.8573 15.06386412101992
STARLINK-1394           
1 45679U 20035Y   22093.49804940 -.00001865  00000+0 -10633-3 0  9992
2 45679  53.0568  23.9422 0001387  71.0959 289.0180 15.06394053102009
STARLINK-1395           
1 45680U 20035Z   22093.50542244 -.00003330  00000+0 -20492-3 0  9995
2 45680  53.0559  23.9073 0001612  56.6313 303.4830 15.06375887101991
STARLINK-1396           
1 45681U 20035AA  22093.10364555 -.00002130  00000+0 -12419-3 0  9996
2 45681  53.0571  25.6965 0001475  55.1913 304.9215 15.06391740101935
STARLINK-1397           
1 45682U 20035AB  22093.50910327 -.00001228  00000+0 -63564-4 0  9990
2 45682  53.0544  23.8720 0001604  50.7400 309.3731 15.06386851101996
STARLINK-1399           
1 45683U 20035AC  22093.82242036 -.00001784  00000+0 -10093-3 0  9996
2 45683  53.0568  22.4902 0001620  56.1655 303.9488 15.06378985102045
STARLINK-1401           
1 45684U 20035AD  22092.53969442 -.00003391  00000+0 -20888-3 0  9990
2 45684  53.0553  28.2328 0001566  63.3586 296.7563 15.06391376102264
STARLINK-1402           
1 45685U 20035AE  22093.79661765 -.00001608  00000+0 -89142-4 0  9995
2 45685  53.0559  22.6071 0001487  52.7843 307.3282 15.06383573102047
STARLINK-1404           
1 45686U 20035AF  22093.32480958 -.00001733  00000+0 -97511-4 0  9996
2 45686  53.0556  24.7072 0001724  53.5317 306.5831 15.06392200101977
STARLINK-1408           
1 45688U 20035AH  22093.31742960 -.00000744  00000+0 -31064-4 0  9993
2 45688  53.0548  24.7296 0001744  48.7068 311.4071 15.06390616101968
STARLINK-1413           
1 45689U 20035AJ  22093.80765729 -.00000432  00000+0 -10127-4 0  9997
2 45689  53.0577  22.5449 0001695  62.4990 297.6172 15.06400851102049
STARLINK-1414           
1 45690U 20035AK  22093.81279712 -.00003405  00000+0 -21471-3 0  9998
2 45690  53.0014  22.5322 0001635  61.2098 298.9054 15.05563953102008
